{
  "type": "Feature",
  "geometry": {
    "type": "LineString",
    "coordinates": [
      [13.67293, 47.38321, 963],
      [13.67293, 47.38321, 963],
      [13.67293, 47.38321, 963],
      [13.67293, 47.38321, 963],
      [13.67293, 47.38321, 963],
      [13.67293, 47.38321, 963],
      [13.67293, 47.38321, 963],
      [13.67293, 47.38321, 963],
      [13.67293, 47.38321, 963],
      [13.67293, 47.38321, 963],
      [13.67293, 47.38321, 963],
      [13.67293, 47.38321, 963],
      [13.67304, 47.38318, 963],
      [13.67306, 47.38321, 963],
      [13.67304, 47.3833, 963],
      [13.67299, 47.38332, 963],
      [13.67287, 47.38335, 963],
      [13.6728, 47.38332, 963],
      [13.67276, 47.3833, 963],
      [13.6727, 47.38326, 964],
      [13.6727, 47.38321, 964],
      [13.67274, 47.38316, 964],
      [13.67287, 47.3831, 964],
      [13.67297, 47.38287, 964],
      [13.67293, 47.38239, 964],
      [13.67293, 47.38239, 964],
      [13.67293, 47.38239, 964],
      [13.67293, 47.38239, 964],
      [13.67272, 47.38162, 963],
      [13.6725, 47.38086, 961],
      [13.67229, 47.38009, 960],
      [13.67229, 47.38009, 960],
      [13.67229, 47.38009, 960],
      [13.67229, 47.38009, 960],
      [13.67229, 47.38009, 960],
      [13.67227, 47.37989, 959],
      [13.67227, 47.37989, 959],
      [13.67227, 47.37978, 959],
      [13.67243, 47.37904, 955],
      [13.6724, 47.3787, 952],
      [13.6724, 47.3787, 952],
      [13.6724, 47.3787, 952],
      [13.6724, 47.3787, 952],
      [13.6724, 47.3787, 952],
      [13.67228, 47.378085, 951],
      [13.67216, 47.37747, 949],
      [13.67216, 47.37747, 949],
      [13.67216, 47.37747, 949],
      [13.67216, 47.37747, 949],
      [13.67216, 47.37747, 949],
      [13.67213, 47.37707, 947],
      [13.67213, 47.37707, 947],
      [13.67213, 47.37684, 945],
      [13.67213, 47.37684, 945],
      [13.67222, 47.37663, 943],
      [13.67236, 47.3764, 940],
      [13.67236, 47.3764, 940],
      [13.67236, 47.3764, 940],
      [13.67236, 47.3764, 940],
      [13.6727, 47.37589, 933],
      [13.6727, 47.37589, 933],
      [13.67273, 47.37578, 933],
      [13.67273, 47.37578, 933],
      [13.67279, 47.37534, 933],
      [13.67287, 47.37513, 933],
      [13.67287, 47.37513, 933],
      [13.67287, 47.37513, 933],
      [13.67287, 47.37513, 933],
      [13.67324, 47.37459, 932],
      [13.6736, 47.37404, 930],
      [13.6736, 47.37404, 930],
      [13.6736, 47.37404, 930],
      [13.6736, 47.37404, 930],
      [13.6736, 47.37404, 930],
      [13.67367, 47.37381, 926],
      [13.67367, 47.37381, 926],
      [13.67367, 47.37368, 925],
      [13.67364, 47.37354, 923],
      [13.67357, 47.37344, 921],
      [13.67344, 47.3733, 921],
      [13.67324, 47.37315, 921],
      [13.67286, 47.37301, 921],
      [13.67286, 47.37301, 921],
      [13.67286, 47.37301, 921],
      [13.67286, 47.37301, 921],
      [13.67286, 47.37301, 921],
      [13.67274, 47.37294, 921],
      [13.67274, 47.37294, 921],
      [13.67267, 47.37287, 921],
      [13.6727, 47.37277, 921],
      [13.67276, 47.37271, 919],
      [13.6727, 47.37268, 918],
      [13.67276, 47.37267, 917],
      [13.67277, 47.37259, 915],
      [13.67276, 47.3723, 908],
      [13.67279, 47.37228, 907],
      [13.6733, 47.37238, 899],
      [13.6733, 47.37238, 899],
      [13.6733, 47.37238, 899],
      [13.6733, 47.37238, 899],
      [13.6733, 47.37238, 899],
      [13.67367, 47.37255, 896],
      [13.67367, 47.37255, 896],
      [13.67387, 47.37259, 894],
      [13.67411, 47.37263, 892],
      [13.6736, 47.37213, 887],
      [13.67354, 47.37191, 885],
      [13.67354, 47.37191, 885],
      [13.67354, 47.37191, 885],
      [13.67354, 47.37191, 885],
      [13.67354, 47.37191, 885],
      [13.67374, 47.37204, 884],
      [13.67374, 47.37204, 884],
      [13.67384, 47.37206, 884],
      [13.67465, 47.37215, 878],
      [13.67501, 47.3722, 876],
      [13.67501, 47.3722, 876],
      [13.67501, 47.3722, 876],
      [13.67501, 47.3722, 876],
      [13.67501, 47.3722, 876],
      [13.67528, 47.37223, 874],
      [13.67528, 47.37223, 874],
      [13.67575, 47.37224, 873],
      [13.67612, 47.37214, 872],
      [13.67652, 47.37195, 871],
      [13.67613, 47.37215, 871],
      [13.67613, 47.37215, 871],
      [13.67653, 47.37197, 871],
      [13.67642, 47.37178, 872],
      [13.67632, 47.37153, 874],
      [13.67631, 47.37133, 876],
      [13.67635, 47.37113, 878],
      [13.67653, 47.37065, 885],
      [13.67655, 47.37035, 889],
      [13.67652, 47.36979, 897],
      [13.67658, 47.36938, 901],
      [13.67663, 47.36926, 902],
      [13.67673, 47.3691, 903],
      [13.67712, 47.36866, 905],
      [13.67715, 47.36857, 906],
      [13.67724, 47.36847, 906],
      [13.67737, 47.36838, 906],
      [13.67769, 47.36825, 906],
      [13.67839, 47.36803, 907],
      [13.67909, 47.36781, 908],
      [13.67946, 47.36764, 910],
      [13.67976, 47.36741, 911],
      [13.67991, 47.36728, 912],
      [13.68016, 47.36699, 914],
      [13.68024, 47.36687, 914],
      [13.68082, 47.36613, 918],
      [13.68097, 47.36599, 919],
      [13.68138, 47.36573, 922],
      [13.68176, 47.36556, 924],
      [13.68238, 47.36526, 926],
      [13.683, 47.36496, 927],
      [13.68349, 47.36465, 930],
      [13.68403, 47.36429, 933],
      [13.68457, 47.36392, 936],
      [13.68496, 47.36359, 938],
      [13.68557, 47.36302, 946],
      [13.6861, 47.36273, 949],
      [13.68686, 47.36232, 954],
      [13.68777, 47.36188, 960],
      [13.6883, 47.3616, 966],
      [13.68856, 47.36143, 970],
      [13.68917, 47.36096, 973],
      [13.68978, 47.36049, 976],
      [13.69035, 47.35992, 978],
      [13.69117, 47.35927, 978],
      [13.69153, 47.35885, 982],
      [13.69202, 47.35838, 985],
      [13.69279, 47.35792, 987],
      [13.69317, 47.35762, 990],
      [13.69346, 47.35745, 992],
      [13.69374, 47.35735, 994],
      [13.69482, 47.35718, 995],
      [13.6959, 47.35701, 996],
      [13.69615, 47.35698, 996],
      [13.69645, 47.35699, 996],
      [13.69726, 47.35709, 996],
      [13.69758, 47.35709, 996],
      [13.69795, 47.35704, 996],
      [13.69878, 47.35679, 993],
      [13.69958, 47.35666, 996],
      [13.7002, 47.35649, 996],
      [13.70082, 47.35632, 996],
      [13.70091, 47.35632, 995],
      [13.70127, 47.35642, 993],
      [13.70157, 47.35653, 993],
      [13.70176, 47.35658, 993],
      [13.70202, 47.35662, 993],
      [13.70253, 47.35664, 993],
      [13.703825, 47.35657, 998],
      [13.70512, 47.3565, 1003],
      [13.70539, 47.35652, 1005],
      [13.70582, 47.35658, 1007],
      [13.70687, 47.35674, 1012],
      [13.70727, 47.35683, 1015],
      [13.70769, 47.35689, 1017],
      [13.7079, 47.35689, 1019],
      [13.70854, 47.35682, 1023],
      [13.70893, 47.35681, 1025],
      [13.70909, 47.35683, 1026],
      [13.70941, 47.35684, 1029],
      [13.70997, 47.35665, 1033],
      [13.71071, 47.35652, 1037],
      [13.71106, 47.35633, 1038],
      [13.71187, 47.35597, 1039],
      [13.71217, 47.35588, 1039],
      [13.7125, 47.35582, 1039],
      [13.71285, 47.35586, 1039],
      [13.71322, 47.35587, 1041],
      [13.71336, 47.35586, 1042],
      [13.71398, 47.35569, 1044],
      [13.71468, 47.35548, 1040],
      [13.71514, 47.35542, 1038],
      [13.7156, 47.3554, 1037],
      [13.71586, 47.35542, 1036],
      [13.71651, 47.35551, 1035],
      [13.71665, 47.35551, 1035],
      [13.71739, 47.35537, 1035],
      [13.71847, 47.35509, 1035],
      [13.71954, 47.35481, 1034],
      [13.72066, 47.35457, 1034],
      [13.72087, 47.3545, 1034],
      [13.72105, 47.35441, 1033],
      [13.72131, 47.35416, 1032],
      [13.72173, 47.35396, 1030],
      [13.72183, 47.35388, 1029],
      [13.72199, 47.35362, 1027],
      [13.72214, 47.35351, 1026],
      [13.72225, 47.35338, 1026],
      [13.72228, 47.35324, 1026],
      [13.72227, 47.35309, 1026],
      [13.72224, 47.35296, 1026],
      [13.72226, 47.35284, 1026],
      [13.72231, 47.35271, 1026],
      [13.72262, 47.3524, 1026],
      [13.72303, 47.35217, 1027],
      [13.7235, 47.35199, 1028],
      [13.72372, 47.35189, 1029],
      [13.7239, 47.35178, 1030],
      [13.72407, 47.35166, 1031],
      [13.72449, 47.35122, 1032],
      [13.72455, 47.35109, 1032],
      [13.72455, 47.35094, 1032],
      [13.72468, 47.35061, 1032],
      [13.72486, 47.35042, 1032],
      [13.72538, 47.34998, 1034],
      [13.72538, 47.34998, 1034],
      [13.72538, 47.34998, 1034],
      [13.72538, 47.34998, 1034],
      [13.72546, 47.34984, 1035],
      [13.72546, 47.34984, 1035],
      [13.72566, 47.34924, 1036],
      [13.72586, 47.34863, 1037],
      [13.72598, 47.3485, 1037],
      [13.72598, 47.3485, 1037],
      [13.72598, 47.3485, 1037],
      [13.72598, 47.3485, 1037],
      [13.72598, 47.3485, 1037],
      [13.72619, 47.34834, 1037],
      [13.72619, 47.34834, 1037],
      [13.72659, 47.34817, 1034],
      [13.72748, 47.34753, 1035],
      [13.72837, 47.34689, 1035],
      [13.72837, 47.34689, 1035],
      [13.72837, 47.34689, 1035],
      [13.72837, 47.34689, 1035],
      [13.72837, 47.34689, 1035],
      [13.7288, 47.34676, 1036],
      [13.7288, 47.34676, 1036],
      [13.72918, 47.34666, 1037],
      [13.72958, 47.34658, 1039],
      [13.73012, 47.34652, 1042],
      [13.73012, 47.34652, 1042],
      [13.73012, 47.34652, 1042],
      [13.73012, 47.34652, 1042],
      [13.73012, 47.34652, 1042],
      [13.73021, 47.3465, 1043],
      [13.73021, 47.3465, 1043],
      [13.73058, 47.34641, 1044],
      [13.73075, 47.34633, 1044],
      [13.73088, 47.34622, 1044],
      [13.73095, 47.34603, 1044],
      [13.73098, 47.34561, 1044],
      [13.73098, 47.34561, 1044],
      [13.73098, 47.34561, 1044],
      [13.73098, 47.34561, 1044],
      [13.73098, 47.34561, 1044],
      [13.73129, 47.34523, 1044],
      [13.73129, 47.34523, 1044],
      [13.73176, 47.34478, 1044],
      [13.73206, 47.34426, 1047],
      [13.73206, 47.34426, 1047],
      [13.73206, 47.34426, 1047],
      [13.73206, 47.34426, 1047],
      [13.73206, 47.34426, 1047],
      [13.73223, 47.34368, 1048],
      [13.73223, 47.34368, 1048],
      [13.73253, 47.34318, 1048],
      [13.7328, 47.34302, 1048],
      [13.7328, 47.34302, 1048],
      [13.7328, 47.34302, 1048],
      [13.7328, 47.34302, 1048],
      [13.7328, 47.34302, 1048],
      [13.73319, 47.34268, 1050],
      [13.73319, 47.34268, 1050],
      [13.73333, 47.34263, 1050],
      [13.7341, 47.34245, 1048],
      [13.73431, 47.34238, 1047],
      [13.73431, 47.34238, 1047],
      [13.73431, 47.34238, 1047],
      [13.73431, 47.34238, 1047],
      [13.73431, 47.34238, 1047],
      [13.73517, 47.34184, 1044],
      [13.73517, 47.34184, 1044],
      [13.73555, 47.34175, 1044],
      [13.73672, 47.34156, 1046],
      [13.73672, 47.34156, 1046],
      [13.73672, 47.34156, 1046],
      [13.73672, 47.34156, 1046],
      [13.73672, 47.34156, 1046],
      [13.73721, 47.34147, 1046],
      [13.73721, 47.34147, 1046],
      [13.73739, 47.34146, 1046],
      [13.73796, 47.34155, 1045],
      [13.73809, 47.34153, 1045],
      [13.73826, 47.34142, 1045],
      [13.73826, 47.34142, 1045],
      [13.73826, 47.34142, 1045],
      [13.73826, 47.34142, 1045],
      [13.73826, 47.34142, 1045],
      [13.73829, 47.34133, 1045],
      [13.73829, 47.34133, 1045],
      [13.73846, 47.34094, 1046],
      [13.73853, 47.34088, 1047],
      [13.739, 47.34056, 1048],
      [13.73947, 47.34023, 1048],
      [13.73947, 47.34023, 1048],
      [13.73947, 47.34023, 1048],
      [13.73947, 47.34023, 1048],
      [13.73947, 47.34023, 1048],
      [13.73967, 47.34012, 1048],
      [13.73967, 47.34012, 1048],
      [13.73993, 47.34005, 1049],
      [13.74037, 47.33998, 1051],
      [13.74084, 47.33989, 1053],
      [13.74107, 47.33979, 1053],
      [13.74107, 47.33979, 1053],
      [13.74107, 47.33979, 1053],
      [13.74107, 47.33979, 1053],
      [13.74107, 47.33979, 1053],
      [13.74158, 47.33946, 1050],
      [13.74158, 47.33946, 1050],
      [13.74178, 47.33924, 1048],
      [13.74201, 47.33864, 1048],
      [13.74201, 47.33864, 1048],
      [13.74201, 47.33864, 1048],
      [13.74201, 47.33864, 1048],
      [13.74201, 47.33864, 1048],
      [13.74224, 47.33839, 1048],
      [13.74224, 47.33839, 1048],
      [13.74241, 47.33805, 1047],
      [13.74254, 47.3379, 1047],
      [13.74295, 47.33756, 1047],
      [13.74295, 47.33756, 1047],
      [13.74295, 47.33756, 1047],
      [13.74295, 47.33756, 1047],
      [13.74295, 47.33756, 1047],
      [13.74322, 47.33718, 1047],
      [13.74322, 47.33718, 1047],
      [13.74332, 47.33707, 1047],
      [13.74408, 47.33659, 1047],
      [13.74456, 47.33635, 1047],
      [13.74456, 47.33635, 1047],
      [13.74456, 47.33635, 1047],
      [13.74456, 47.33635, 1047],
      [13.74456, 47.33635, 1047],
      [13.74537, 47.33607, 1047],
      [13.74537, 47.33607, 1047],
      [13.74583, 47.33595, 1047],
      [13.74596, 47.33591, 1047],
      [13.74596, 47.33591, 1047],
      [13.74596, 47.33591, 1047],
      [13.74596, 47.33591, 1047],
      [13.74596, 47.33591, 1047],
      [13.74606, 47.33585, 1047],
      [13.74606, 47.33585, 1047],
      [13.74626, 47.33569, 1047],
      [13.74634, 47.3356, 1048],
      [13.74643, 47.33545, 1048],
      [13.74654, 47.33484, 1049],
      [13.746875, 47.334345, 1050],
      [13.74721, 47.33385, 1050],
      [13.74721, 47.33385, 1050],
      [13.74721, 47.33385, 1050],
      [13.74721, 47.33385, 1050],
      [13.74721, 47.33385, 1050],
      [13.74738, 47.33375, 1051],
      [13.74738, 47.33375, 1051],
      [13.74767, 47.33371, 1052],
      [13.74847, 47.33372, 1053],
      [13.74952, 47.33363, 1057],
      [13.74952, 47.33363, 1057],
      [13.74952, 47.33363, 1057],
      [13.74952, 47.33363, 1057],
      [13.74952, 47.33363, 1057],
      [13.75002, 47.33355, 1059],
      [13.75002, 47.33355, 1059],
      [13.75078, 47.33329, 1061],
      [13.75116, 47.33318, 1062],
      [13.75116, 47.33318, 1062],
      [13.75116, 47.33318, 1062],
      [13.75116, 47.33318, 1062],
      [13.75116, 47.33318, 1062],
      [13.7517, 47.33283, 1064],
      [13.7517, 47.33283, 1064],
      [13.752305, 47.332495, 1067],
      [13.75291, 47.33216, 1070],
      [13.75291, 47.33216, 1070],
      [13.75291, 47.33216, 1070],
      [13.75291, 47.33216, 1070],
      [13.75291, 47.33216, 1070],
      [13.7534, 47.33174, 1071],
      [13.7534, 47.33174, 1071],
      [13.75384, 47.33156, 1070],
      [13.75407, 47.3313, 1070],
      [13.75407, 47.3313, 1070],
      [13.75407, 47.3313, 1070],
      [13.75407, 47.3313, 1070],
      [13.75407, 47.3313, 1070],
      [13.75411, 47.33092, 1069],
      [13.75411, 47.33092, 1069],
      [13.75411, 47.33052, 1068],
      [13.75421, 47.33034, 1068],
      [13.754565, 47.32996, 1069],
      [13.75492, 47.32958, 1070],
      [13.75492, 47.32958, 1070],
      [13.75492, 47.32958, 1070],
      [13.75492, 47.32958, 1070],
      [13.75492, 47.32958, 1070],
      [13.75511, 47.3293, 1071],
      [13.75511, 47.3293, 1071],
      [13.75518, 47.32906, 1071],
      [13.75528, 47.32887, 1071],
      [13.75538, 47.32879, 1071],
      [13.75548, 47.32873, 1071],
      [13.75572, 47.32861, 1072],
      [13.75572, 47.32861, 1072],
      [13.75572, 47.32861, 1072],
      [13.75572, 47.32861, 1072],
      [13.75572, 47.32861, 1072],
      [13.75686, 47.328225, 1074],
      [13.758, 47.32784, 1076],
      [13.758, 47.32784, 1076],
      [13.758, 47.32784, 1076],
      [13.758, 47.32784, 1076],
      [13.758, 47.32784, 1076],
      [13.7582, 47.3277, 1076],
      [13.7582, 47.3277, 1076],
      [13.75844, 47.32756, 1076],
      [13.75844, 47.32756, 1076],
      [13.75884, 47.32745, 1076]
    ]
  },
  "properties": {
    "title": "Radtour Rohrmoos-Riesachfall",
    "description": "Radtour von Rohrmoos zum Parkplatz Riesachfall",
    "stroke": "#002361",
    "stroke-width": 3,
    "stroke-opacity": 1,
    "sections": [
      {
        "id": "surface",
        "values": [
          {
            "from": 0,
            "to": 0.005624397588218653,
            "value": "asphalt"
          },
          {
            "from": 0.005624397588218653,
            "to": 0.005943859402996719,
            "value": "other"
          },
          {
            "from": 0.005943859402996719,
            "to": 0.047584834138891925,
            "value": "asphalt"
          },
          {
            "from": 0.047584834138891925,
            "to": 0.1213861839229819,
            "value": "asphalt"
          },
          {
            "from": 0.1213861839229819,
            "to": 0.14509077456114236,
            "value": "paved"
          },
          {
            "from": 0.14509077456114236,
            "to": 0.17404897768198072,
            "value": "asphalt"
          },
          {
            "from": 0.17404897768198072,
            "to": 0.1976344921163144,
            "value": "other"
          },
          {
            "from": 0.19763467730481182,
            "to": 0.2578701578707647,
            "value": "asphalt"
          },
          {
            "from": 0.2578701578707647,
            "to": 0.9947136144196685,
            "value": "asphalt"
          },
          {
            "from": 0.9947136144196685,
            "to": 1.0000000000000002,
            "value": "paved"
          }
        ]
      },
      {
        "id": "highway",
        "values": [
          {
            "from": 0,
            "to": 0.005624397588218653,
            "value": "road"
          },
          {
            "from": 0.005624397588218653,
            "to": 0.005943859402996719,
            "value": "pedestrian"
          },
          {
            "from": 0.005943859402996719,
            "to": 0.047584834138891925,
            "value": "pedestrian"
          },
          {
            "from": 0.047584834138891925,
            "to": 0.1213861839229819,
            "value": "road"
          },
          {
            "from": 0.1213861839229819,
            "to": 0.14509077456114236,
            "value": "path"
          },
          {
            "from": 0.14509077456114236,
            "to": 0.17404897768198072,
            "value": "street"
          },
          {
            "from": 0.17404897768198072,
            "to": 0.1976344921163144,
            "value": "pedestrian"
          },
          {
            "from": 0.19763467730481182,
            "to": 0.2578701578707647,
            "value": "road"
          },
          {
            "from": 0.2578701578707647,
            "to": 0.9947136144196685,
            "value": "street"
          },
          {
            "from": 0.9947136144196685,
            "to": 1.0000000000000002,
            "value": "street"
          }
        ]
      }
    ]
  }
}
